DELTA 1 R/B             
1 20323U 89089B   25321.59977803  .00000638  00000+0  16636-3 0  9996
2 20323  97.0773 181.8193 0070611 116.1882 244.6599 14.50543431879483
ARIANE 40 R/B           
1 20443U 90005H   25321.58195321  .00000568  00000+0  19471-3 0  9997
2 20443  98.3280  20.4669 0010278 175.7445 184.3833 14.39771684876677
DELTA 2 R/B(1)          
1 20453U 90008B   25321.72667003  .00042118  00000+0  71662-3 0  9995
2 20453  35.6064 181.7616 0116854 310.1063  48.9475 15.42968299908761
COSMOS 2058             
1 20465U 90010A   25321.78039615  .00004879  00000+0  29678-3 0  9991
2 20465  82.4638 157.5861 0010553   8.5165 351.6241 15.10186451925349
SL-14 R/B               
1 20466U 90010B   25321.58589993  .00000721  00000+0  84808-4 0  9998
2 20466  82.5043  12.6696 0018655 312.3403  47.6231 14.83439402911869
SL-14 R/B               
1 20511U 90018B   25321.76601934  .00000711  00000+0  86400-4 0  9996
2 20511  82.5201 327.7100 0017950  99.7117 260.6126 14.82011979906005
HST                     
1 20580U 90037B   25321.64305954  .00009681  00000+0  34065-3 0  9997
2 20580  28.4683  83.2419 0001460 330.3041  29.7471 15.27574425756156
SL-16 R/B               
1 20625U 90046B   25321.57931191 -.00000047  00000+0  55650-6 0  9991
2 20625  70.9960 173.3607 0012308 119.6022 240.6328 14.14990124832531
COSMOS 2084             
1 20663U 90055A   25321.45088024  .00004261  00000+0  31036-3 0  9998
2 20663  62.7919 358.1476 0035798 171.6784 188.4918 15.04809240919420
SL-6 R/B(2)             
1 20666U 90055D   25321.81783752  .00003827  00000+0  29780-3 0  9991
2 20666  62.7835 274.0836 0010946 287.6850  72.3053 15.02909952921373
SL-8 R/B                
1 20775U 90078B   25321.80374411  .00019970  00000+0  61665-3 0  9998
2 20775  82.9061 351.6036 0379672  29.4547 332.7482 14.84521183792675
SL-8 R/B                
1 21088U 91006B   25321.82643140  .00000134  00000+0  11969-3 0  9992
2 21088  82.9420 253.2432 0022420 352.2749  19.7660 13.77485659748675
