CCSDS_OMM_VERS = 2.0
CREATION_DATE  = 
ORIGINATOR     = 

OBJECT_NAME    = DELTA 1 R/B
OBJECT_ID      = 1989-089B
CENTER_NAME    = EARTH
REF_FRAME      = TEME
TIME_SYSTEM    = UTC
MEAN_ELEMENT_THEORY = SGP/SGP4

EPOCH          = 2025-11-17T14:23:40.822656
MEAN_MOTION    = 14.50543431
ECCENTRICITY   = .0070611
INCLINATION    = 97.0773
RA_OF_ASC_NODE = 181.8193
ARG_OF_PERICENTER = 116.1882
MEAN_ANOMALY   = 244.6599

EPHEMERIS_TYPE = 0
CLASSIFICATION_TYPE = U
NORAD_CAT_ID   = 20323
ELEMENT_SET_NO = 999
REV_AT_EPOCH   = 87948
BSTAR          = .16636209E-3
MEAN_MOTION_DOT = .638E-5
MEAN_MOTION_DDOT = 0

CCSDS_OMM_VERS = 2.0
CREATION_DATE  = 
ORIGINATOR     = 

OBJECT_NAME    = ARIANE 40 R/B
OBJECT_ID      = 1990-005H
CENTER_NAME    = EARTH
REF_FRAME      = TEME
TIME_SYSTEM    = UTC
MEAN_ELEMENT_THEORY = SGP/SGP4

EPOCH          = 2025-11-17T13:58:00.757344
MEAN_MOTION    = 14.39771684
ECCENTRICITY   = .00102778
INCLINATION    = 98.3280
RA_OF_ASC_NODE = 20.4669
ARG_OF_PERICENTER = 175.7445
MEAN_ANOMALY   = 184.3833

EPHEMERIS_TYPE = 0
CLASSIFICATION_TYPE = U
NORAD_CAT_ID   = 20443
ELEMENT_SET_NO = 999
REV_AT_EPOCH   = 87667
BSTAR          = .19471317E-3
MEAN_MOTION_DOT = .568E-5
MEAN_MOTION_DDOT = 0

CCSDS_OMM_VERS = 2.0
CREATION_DATE  = 
ORIGINATOR     = 

OBJECT_NAME    = DELTA 2 R/B(1)
OBJECT_ID      = 1990-008B
CENTER_NAME    = EARTH
REF_FRAME      = TEME
TIME_SYSTEM    = UTC
MEAN_ELEMENT_THEORY = SGP/SGP4

EPOCH          = 2025-11-17T17:26:24.290592
MEAN_MOTION    = 15.42968299
ECCENTRICITY   = .0116854
INCLINATION    = 35.6064
RA_OF_ASC_NODE = 181.7616
ARG_OF_PERICENTER = 310.1063
MEAN_ANOMALY   = 48.9475

EPHEMERIS_TYPE = 0
CLASSIFICATION_TYPE = U
NORAD_CAT_ID   = 20453
ELEMENT_SET_NO = 999
REV_AT_EPOCH   = 90876
BSTAR          = .71662E-3
MEAN_MOTION_DOT = .42118E-3
MEAN_MOTION_DDOT = 0

CCSDS_OMM_VERS = 2.0
CREATION_DATE  = 
ORIGINATOR     = 

OBJECT_NAME    = COSMOS 2058
OBJECT_ID      = 1990-010A
CENTER_NAME    = EARTH
REF_FRAME      = TEME
TIME_SYSTEM    = UTC
MEAN_ELEMENT_THEORY = SGP/SGP4

EPOCH          = 2025-11-17T18:43:46.227360
MEAN_MOTION    = 15.10186451
ECCENTRICITY   = .0010553
INCLINATION    = 82.4638
RA_OF_ASC_NODE = 157.5861
ARG_OF_PERICENTER = 8.5165
MEAN_ANOMALY   = 351.6241

EPHEMERIS_TYPE = 0
CLASSIFICATION_TYPE = U
NORAD_CAT_ID   = 20465
ELEMENT_SET_NO = 999
REV_AT_EPOCH   = 92534
BSTAR          = .29678E-3
MEAN_MOTION_DOT = .4879E-4
MEAN_MOTION_DDOT = 0

CCSDS_OMM_VERS = 2.0
CREATION_DATE  = 
ORIGINATOR     = 

OBJECT_NAME    = SL-14 R/B
OBJECT_ID      = 1990-010B
CENTER_NAME    = EARTH
REF_FRAME      = TEME
TIME_SYSTEM    = UTC
MEAN_ELEMENT_THEORY = SGP/SGP4

EPOCH          = 2025-11-17T14:03:41.754816
MEAN_MOTION    = 14.83439402
ECCENTRICITY   = .0018655
INCLINATION    = 82.5043
RA_OF_ASC_NODE = 12.6696
ARG_OF_PERICENTER = 312.3403
MEAN_ANOMALY   = 47.6231

EPHEMERIS_TYPE = 0
CLASSIFICATION_TYPE = U
NORAD_CAT_ID   = 20466
ELEMENT_SET_NO = 999
REV_AT_EPOCH   = 91186
BSTAR          = .84807543E-4
MEAN_MOTION_DOT = .721E-5
MEAN_MOTION_DDOT = 0

CCSDS_OMM_VERS = 2.0
CREATION_DATE  = 
ORIGINATOR     = 

OBJECT_NAME    = SL-14 R/B
OBJECT_ID      = 1990-018B
CENTER_NAME    = EARTH
REF_FRAME      = TEME
TIME_SYSTEM    = UTC
MEAN_ELEMENT_THEORY = SGP/SGP4

EPOCH          = 2025-11-17T18:23:04.070976
MEAN_MOTION    = 14.82011979
ECCENTRICITY   = .001795
INCLINATION    = 82.5201
RA_OF_ASC_NODE = 327.7100
ARG_OF_PERICENTER = 99.7117
MEAN_ANOMALY   = 260.6126

EPHEMERIS_TYPE = 0
CLASSIFICATION_TYPE = U
NORAD_CAT_ID   = 20511
ELEMENT_SET_NO = 999
REV_AT_EPOCH   = 90600
BSTAR          = .864E-4
MEAN_MOTION_DOT = .711E-5
MEAN_MOTION_DDOT = 0

CCSDS_OMM_VERS = 2.0
CREATION_DATE  = 
ORIGINATOR     = 

OBJECT_NAME    = HST
OBJECT_ID      = 1990-037B
CENTER_NAME    = EARTH
REF_FRAME      = TEME
TIME_SYSTEM    = UTC
MEAN_ELEMENT_THEORY = SGP/SGP4

EPOCH          = 2025-11-17T15:26:00.344256
MEAN_MOTION    = 15.27574425
ECCENTRICITY   = .00014599
INCLINATION    = 28.4683
RA_OF_ASC_NODE = 83.2419
ARG_OF_PERICENTER = 330.3041
MEAN_ANOMALY   = 29.7471

EPHEMERIS_TYPE = 0
CLASSIFICATION_TYPE = U
NORAD_CAT_ID   = 20580
ELEMENT_SET_NO = 999
REV_AT_EPOCH   = 75615
BSTAR          = .34064732E-3
MEAN_MOTION_DOT = .9681E-4
MEAN_MOTION_DDOT = 0

CCSDS_OMM_VERS = 2.0
CREATION_DATE  = 
ORIGINATOR     = 

OBJECT_NAME    = SL-16 R/B
OBJECT_ID      = 1990-046B
CENTER_NAME    = EARTH
REF_FRAME      = TEME
TIME_SYSTEM    = UTC
MEAN_ELEMENT_THEORY = SGP/SGP4

EPOCH          = 2025-11-17T13:54:12.549888
MEAN_MOTION    = 14.14990124
ECCENTRICITY   = .0012308
INCLINATION    = 70.9960
RA_OF_ASC_NODE = 173.3607
ARG_OF_PERICENTER = 119.6022
MEAN_ANOMALY   = 240.6328

EPHEMERIS_TYPE = 0
CLASSIFICATION_TYPE = U
NORAD_CAT_ID   = 20625
ELEMENT_SET_NO = 999
REV_AT_EPOCH   = 83253
BSTAR          = .556503E-6
MEAN_MOTION_DOT = -.47E-6
MEAN_MOTION_DDOT = 0

CCSDS_OMM_VERS = 2.0
CREATION_DATE  = 
ORIGINATOR     = 

OBJECT_NAME    = COSMOS 2084
OBJECT_ID      = 1990-055A
CENTER_NAME    = EARTH
REF_FRAME      = TEME
TIME_SYSTEM    = UTC
MEAN_ELEMENT_THEORY = SGP/SGP4

EPOCH          = 2025-11-17T10:49:16.053600
MEAN_MOTION    = 15.04809240
ECCENTRICITY   = .0035798
INCLINATION    = 62.7919
RA_OF_ASC_NODE = 358.1476
ARG_OF_PERICENTER = 171.6784
MEAN_ANOMALY   = 188.4918

EPHEMERIS_TYPE = 0
CLASSIFICATION_TYPE = U
NORAD_CAT_ID   = 20663
ELEMENT_SET_NO = 999
REV_AT_EPOCH   = 91942
BSTAR          = .31035671E-3
MEAN_MOTION_DOT = .4261E-4
MEAN_MOTION_DDOT = 0

CCSDS_OMM_VERS = 2.0
CREATION_DATE  = 
ORIGINATOR     = 

OBJECT_NAME    = SL-6 R/B(2)
OBJECT_ID      = 1990-055D
CENTER_NAME    = EARTH
REF_FRAME      = TEME
TIME_SYSTEM    = UTC
MEAN_ELEMENT_THEORY = SGP/SGP4

EPOCH          = 2025-11-17T19:37:41.161728
MEAN_MOTION    = 15.02909952
ECCENTRICITY   = .0010946
INCLINATION    = 62.7835
RA_OF_ASC_NODE = 274.0836
ARG_OF_PERICENTER = 287.6850
MEAN_ANOMALY   = 72.3053

EPHEMERIS_TYPE = 0
CLASSIFICATION_TYPE = U
NORAD_CAT_ID   = 20666
ELEMENT_SET_NO = 999
REV_AT_EPOCH   = 92137
BSTAR          = .2978E-3
MEAN_MOTION_DOT = .3827E-4
MEAN_MOTION_DDOT = 0

CCSDS_OMM_VERS = 2.0
CREATION_DATE  = 
ORIGINATOR     = 

OBJECT_NAME    = SL-8 R/B
OBJECT_ID      = 1990-078B
CENTER_NAME    = EARTH
REF_FRAME      = TEME
TIME_SYSTEM    = UTC
MEAN_ELEMENT_THEORY = SGP/SGP4

EPOCH          = 2025-11-17T19:17:23.491104
MEAN_MOTION    = 14.84521183
ECCENTRICITY   = .0379672
INCLINATION    = 82.9061
RA_OF_ASC_NODE = 351.6036
ARG_OF_PERICENTER = 29.4547
MEAN_ANOMALY   = 332.7482

EPHEMERIS_TYPE = 0
CLASSIFICATION_TYPE = U
NORAD_CAT_ID   = 20775
ELEMENT_SET_NO = 999
REV_AT_EPOCH   = 79267
BSTAR          = .61665E-3
MEAN_MOTION_DOT = .1997E-3
MEAN_MOTION_DDOT = 0

CCSDS_OMM_VERS = 2.0
CREATION_DATE  = 
ORIGINATOR     = 

OBJECT_NAME    = SL-8 R/B
OBJECT_ID      = 1991-006B
CENTER_NAME    = EARTH
REF_FRAME      = TEME
TIME_SYSTEM    = UTC
MEAN_ELEMENT_THEORY = SGP/SGP4

EPOCH          = 2025-11-17T19:50:03.672960
MEAN_MOTION    = 13.77485659
ECCENTRICITY   = .002242
INCLINATION    = 82.9420
RA_OF_ASC_NODE = 253.2432
ARG_OF_PERICENTER = 352.2749
MEAN_ANOMALY   = 19.7660

EPHEMERIS_TYPE = 0
CLASSIFICATION_TYPE = U
NORAD_CAT_ID   = 21088
ELEMENT_SET_NO = 999
REV_AT_EPOCH   = 74867
BSTAR          = .11969E-3
MEAN_MOTION_DOT = .134E-5
MEAN_MOTION_DDOT = 0

